UNKNOWN                 
1 81745U          25298.78955221  .00002975  00000+0  96058-3 0  9993
2 81745  70.9989 132.4446 0006984 284.1274  75.9085 14.39947114622847
UNKNOWN                 
1 81749U          25298.33063809  .00000214  00000+0  86178-3 0  9996
2 81749  99.6930 335.1454 0369270 316.3517  99.7559 12.77587173555822
UNKNOWN                 
1 81775U          25298.86975137  .00009924  00000+0  31452-2 0  9990
2 81775  82.9181 263.9291 0021445  41.0382 319.2419 14.39853426618385
UNKNOWN                 
1 81792U          25296.45219114  .00002853  00000+0  10224-2 0  9996
2 81792  65.8254 208.8555 0896684 304.5833  47.3717 13.10660187 73449
UNKNOWN                 
1 81819U          25298.22627073  .00000957  00000+0  67964-2 0  9996
2 81819 102.1773  34.7198 0038293 206.7028 153.2068 12.47533926541964
UNKNOWN                 
1 81824U          25299.86107451  .00006298  00000+0  22378-2 0  9990
2 81824  65.8422 105.2140 0035313 351.8798   8.1718 14.34654345617863
UNKNOWN                 
1 81833U          25299.16723398  .00000349  00000+0  12406-2 0  9999
2 81833  90.2445   1.8666 0029303 146.9088 213.3871 12.93699213446362
UNKNOWN                 
1 81844U          25298.78195416  .00005239  00000+0  18979-2 0  9996
2 81844  82.9112 321.8085 0061625 300.1989  59.3104 14.32225134616021
